[{"OBJECT_NAME":"STARLINK-30861","OBJECT_ID":"2023-171A","EPOCH":"2026-03-09T22:00:01.999584","MEAN_MOTION":15.22507727,"ECCENTRICITY":0.00017126,"INCLINATION":42.9995,"RA_OF_ASC_NODE":283.6227,"ARG_OF_PERICENTER":267.5987,"MEAN_ANOMALY":75.0186,"EPHEMERIS_TYPE":0,"CLASSIFICATION_TYPE":"U","NORAD_CAT_ID":58230,"ELEMENT_SET_NO":999,"REV_AT_EPOCH":572,"BSTAR":0.00089230355,"MEAN_MOTION_DOT":0.00020896,"MEAN_MOTION_DDOT":0},{"OBJECT_NAME":"BRO-16","OBJECT_ID":"2025-009AX","EPOCH":"2026-03-09T16:55:56.220384","MEAN_MOTION":15.23029012,"ECCENTRICITY":5.557e-5,"INCLINATION":97.4092,"RA_OF_ASC_NODE":150.4664,"ARG_OF_PERICENTER":332.7889,"MEAN_ANOMALY":27.3318,"EPHEMERIS_TYPE":0,"CLASSIFICATION_TYPE":"U","NORAD_CAT_ID":62654,"ELEMENT_SET_NO":999,"REV_AT_EPOCH":6365,"BSTAR":0.00026802153,"MEAN_MOTION_DOT":6.238e-5,"MEAN_MOTION_DDOT":0}]
